NOAA 21 (JPSS-2)
1 54234U 22150A   26119.25929457  .00000049  00000+0  44010-4 0  9995
2 54234  98.7038  58.8767 0001671  15.8138 344.3090 14.19556262179604
